{
 "generated_at": "2026-07-10T08:23:00Z",
 "sources": [
  {
   "name": "CelesTrak",
   "url": "https://celestrak.org/NORAD/elements/",
   "license": "frei verfügbar; Attribution. Ursprünglich USSPACECOM/Space-Track."
  },
  {
   "name": "GCAT (J. McDowell, planet4589.org)",
   "url": "https://planet4589.org/space/gcat/",
   "license": "CC-BY 4.0"
  }
 ],
 "satellites": [
  {
   "norad": 47932,
   "name": "CAS500-1",
   "intl": "2021-022A",
   "group": "resource",
   "gcat": {
    "class": "C",
    "category": "IMG",
    "owner": "KARI",
    "state": "KR"
   },
   "omm": {
    "OBJECT_NAME": "CAS500-1",
    "OBJECT_ID": "2021-022A",
    "EPOCH": "2026-07-09T20:07:11.254080",
    "MEAN_MOTION": 15.20145076,
    "ECCENTRICITY": 0.0004609,
    "INCLINATION": 97.3875,
    "RA_OF_ASC_NODE": 85.6303,
    "ARG_OF_PERICENTER": 186.9569,
    "MEAN_ANOMALY": 173.1603,
    "EPHEMERIS_TYPE": 0,
    "CLASSIFICATION_TYPE": "U",
    "NORAD_CAT_ID": 47932,
    "ELEMENT_SET_NO": 999,
    "REV_AT_EPOCH": 29420,
    "BSTAR": 0.00019486,
    "MEAN_MOTION_DOT": 0.00004148,
    "MEAN_MOTION_DDOT": 0
   }
  },
  {
   "norad": 69013,
   "name": "CAS500-2",
   "intl": "2026-100AK",
   "group": "resource",
   "gcat": {
    "class": "C",
    "category": "TECH",
    "owner": "KAIST",
    "state": "KR"
   },
   "omm": {
    "OBJECT_NAME": "CAS500-2",
    "OBJECT_ID": "2026-100AK",
    "EPOCH": "2026-07-09T18:53:56.785056",
    "MEAN_MOTION": 15.20862515,
    "ECCENTRICITY": 0.0008131,
    "INCLINATION": 97.3877,
    "RA_OF_ASC_NODE": 88.2163,
    "ARG_OF_PERICENTER": 314.7056,
    "MEAN_ANOMALY": 45.3516,
    "EPHEMERIS_TYPE": 0,
    "CLASSIFICATION_TYPE": "U",
    "NORAD_CAT_ID": 69013,
    "ELEMENT_SET_NO": 999,
    "REV_AT_EPOCH": 1024,
    "BSTAR": 0.0002089,
    "MEAN_MOTION_DOT": 0.00004548,
    "MEAN_MOTION_DDOT": 0
   }
  },
  {
   "norad": 66655,
   "name": "CAS500-3",
   "intl": "2025-274F",
   "group": "resource",
   "gcat": {
    "class": "B",
    "category": "IMG",
    "owner": "KAIST",
    "state": "KR"
   },
   "omm": {
    "OBJECT_NAME": "CAS500-3",
    "OBJECT_ID": "2025-274F",
    "EPOCH": "2026-07-08T19:06:22.060224",
    "MEAN_MOTION": 14.88374289,
    "ECCENTRICITY": 0.00066658,
    "INCLINATION": 97.744,
    "RA_OF_ASC_NODE": 117.3557,
    "ARG_OF_PERICENTER": 55.1765,
    "MEAN_ANOMALY": 305.0078,
    "EPHEMERIS_TYPE": 0,
    "CLASSIFICATION_TYPE": "U",
    "NORAD_CAT_ID": 66655,
    "ELEMENT_SET_NO": 999,
    "REV_AT_EPOCH": 3336,
    "BSTAR": 0.00010657486,
    "MEAN_MOTION_DOT": 0.00000933,
    "MEAN_MOTION_DDOT": 0
   }
  },
  {
   "norad": 40336,
   "name": "CBERS 4",
   "intl": "2014-079A",
   "group": "resource",
   "gcat": {
    "class": "C",
    "category": "IMG",
    "owner": "ZZWYZ/INPE",
    "state": "CN"
   },
   "omm": {
    "OBJECT_NAME": "CBERS 4",
    "OBJECT_ID": "2014-079A",
    "EPOCH": "2026-07-09T19:54:46.020384",
    "MEAN_MOTION": 14.35514709,
    "ECCENTRICITY": 0.0001021,
    "INCLINATION": 98.352,
    "RA_OF_ASC_NODE": 246.9498,
    "ARG_OF_PERICENTER": 49.6302,
    "MEAN_ANOMALY": 310.4973,
    "EPHEMERIS_TYPE": 0,
    "CLASSIFICATION_TYPE": "U",
    "NORAD_CAT_ID": 40336,
    "ELEMENT_SET_NO": 999,
    "REV_AT_EPOCH": 60720,
    "BSTAR": -0.000011793,
    "MEAN_MOTION_DOT": -7.6e-7,
    "MEAN_MOTION_DDOT": 0
   }
  },
  {
   "norad": 64903,
   "name": "CO3D 1",
   "intl": "2025-156E",
   "group": "resource",
   "gcat": {
    "class": "C",
    "category": "SCI",
    "owner": "CNES",
    "state": "F"
   },
   "omm": {
    "OBJECT_NAME": "CO3D 1",
    "OBJECT_ID": "2025-156E",
    "EPOCH": "2026-07-09T17:33:48.303648",
    "MEAN_MOTION": 15.20197112,
    "ECCENTRICITY": 0.000128,
    "INCLINATION": 97.4334,
    "RA_OF_ASC_NODE": 268.9995,
    "ARG_OF_PERICENTER": 98.7407,
    "MEAN_ANOMALY": 261.3973,
    "EPHEMERIS_TYPE": 0,
    "CLASSIFICATION_TYPE": "U",
    "NORAD_CAT_ID": 64903,
    "ELEMENT_SET_NO": 999,
    "REV_AT_EPOCH": 5295,
    "BSTAR": 0.00012764,
    "MEAN_MOTION_DOT": 0.00002696,
    "MEAN_MOTION_DDOT": 0
   }
  },
  {
   "norad": 64902,
   "name": "CO3D 2",
   "intl": "2025-156D",
   "group": "resource",
   "gcat": {
    "class": "C",
    "category": "SCI",
    "owner": "CNES",
    "state": "F"
   },
   "omm": {
    "OBJECT_NAME": "CO3D 2",
    "OBJECT_ID": "2025-156D",
    "EPOCH": "2026-07-09T17:33:34.934112",
    "MEAN_MOTION": 15.20193716,
    "ECCENTRICITY": 0.0001329,
    "INCLINATION": 97.4334,
    "RA_OF_ASC_NODE": 268.9994,
    "ARG_OF_PERICENTER": 87.2074,
    "MEAN_ANOMALY": 272.9313,
    "EPHEMERIS_TYPE": 0,
    "CLASSIFICATION_TYPE": "U",
    "NORAD_CAT_ID": 64902,
    "ELEMENT_SET_NO": 999,
    "REV_AT_EPOCH": 5295,
    "BSTAR": 0.00012482,
    "MEAN_MOTION_DOT": 0.00002635,
    "MEAN_MOTION_DDOT": 0
   }
  },
  {
   "norad": 64900,
   "name": "CO3D 3",
   "intl": "2025-156B",
   "group": "resource",
   "gcat": {
    "class": "C",
    "category": "SCI",
    "owner": "CNES",
    "state": "F"
   },
   "omm": {
    "OBJECT_NAME": "CO3D 3",
    "OBJECT_ID": "2025-156B",
    "EPOCH": "2026-07-09T16:46:36.242112",
    "MEAN_MOTION": 15.2020937,
    "ECCENTRICITY": 0.0001854,
    "INCLINATION": 97.4335,
    "RA_OF_ASC_NODE": 269.0683,
    "ARG_OF_PERICENTER": 100.3214,
    "MEAN_ANOMALY": 259.823,
    "EPHEMERIS_TYPE": 0,
    "CLASSIFICATION_TYPE": "U",
    "NORAD_CAT_ID": 64900,
    "ELEMENT_SET_NO": 999,
    "REV_AT_EPOCH": 5295,
    "BSTAR": 0.00014825,
    "MEAN_MOTION_DOT": 0.00003144,
    "MEAN_MOTION_DDOT": 0
   }
  },
  {
   "norad": 64901,
   "name": "CO3D 4",
   "intl": "2025-156C",
   "group": "resource",
   "gcat": {
    "class": "C",
    "category": "SCI",
    "owner": "CNES",
    "state": "F"
   },
   "omm": {
    "OBJECT_NAME": "CO3D 4",
    "OBJECT_ID": "2025-156C",
    "EPOCH": "2026-07-09T16:46:49.336032",
    "MEAN_MOTION": 15.20203063,
    "ECCENTRICITY": 0.0001186,
    "INCLINATION": 97.4337,
    "RA_OF_ASC_NODE": 269.0684,
    "ARG_OF_PERICENTER": 162.605,
    "MEAN_ANOMALY": 197.5226,
    "EPHEMERIS_TYPE": 0,
    "CLASSIFICATION_TYPE": "U",
    "NORAD_CAT_ID": 64901,
    "ELEMENT_SET_NO": 999,
    "REV_AT_EPOCH": 5295,
    "BSTAR": 0.000044088,
    "MEAN_MOTION_DOT": 0.00000887,
    "MEAN_MOTION_DDOT": 0
   }
  },
  {
   "norad": 36744,
   "name": "COMS 1",
   "intl": "2010-032A",
   "group": "weather",
   "gcat": {
    "class": null,
    "category": null,
    "owner": null,
    "state": null
   },
   "omm": {
    "OBJECT_NAME": "COMS 1",
    "OBJECT_ID": "2010-032A",
    "EPOCH": "2026-07-08T08:30:55.567584",
    "MEAN_MOTION": 0.99169315,
    "ECCENTRICITY": 0.00113597,
    "INCLINATION": 4.8563,
    "RA_OF_ASC_NODE": 75.1008,
    "ARG_OF_PERICENTER": 14.729,
    "MEAN_ANOMALY": 313.4314,
    "EPHEMERIS_TYPE": 0,
    "CLASSIFICATION_TYPE": "U",
    "NORAD_CAT_ID": 36744,
    "ELEMENT_SET_NO": 999,
    "REV_AT_EPOCH": 5129,
    "BSTAR": 0,
    "MEAN_MOTION_DOT": -0.00000198,
    "MEAN_MOTION_DDOT": 0
   }
  },
  {
   "norad": 31598,
   "name": "COSMO-SKYMED 1",
   "intl": "2007-023A",
   "group": "resource",
   "gcat": {
    "class": "D",
    "category": "IMG-R",
    "owner": "ASI",
    "state": "I"
   },
   "omm": {
    "OBJECT_NAME": "COSMO-SKYMED 1",
    "OBJECT_ID": "2007-023A",
    "EPOCH": "2026-07-09T20:36:40.511808",
    "MEAN_MOTION": 14.97204164,
    "ECCENTRICITY": 0.000106,
    "INCLINATION": 97.8844,
    "RA_OF_ASC_NODE": 22.9064,
    "ARG_OF_PERICENTER": 95.8959,
    "MEAN_ANOMALY": 264.2383,
    "EPHEMERIS_TYPE": 0,
    "CLASSIFICATION_TYPE": "U",
    "NORAD_CAT_ID": 31598,
    "ELEMENT_SET_NO": 999,
    "REV_AT_EPOCH": 3318,
    "BSTAR": 0.00013118,
    "MEAN_MOTION_DOT": 0.00001457,
    "MEAN_MOTION_DDOT": 0
   }
  }
 ]
}
