COSMO-SKYMED 1          
1 31598U 07023A   26190.85880222  .00001457  00000+0  13118-3 0  9994
2 31598  97.8844  22.9064 0001060  95.8959 264.2383 14.97204164 33184
COMS 1                  
1 36744U 10032A   26189.35480981 -.00000198  00000+0  00000+0 0  9991
2 36744   4.8563  75.1008 0011359  14.7290 313.4314  0.99169315 51294
CBERS 4                 
1 40336U 14079A   26190.82969931 -.00000076  00000+0 -11793-4 0  9991
2 40336  98.3520 246.9498 0001021  49.6302 310.4973 14.35514709607206
CAS500-1                
1 47932U 21022A   26190.83832470  .00004148  00000+0  19486-3 0  9992
2 47932  97.3875  85.6303 0004609 186.9569 173.1603 15.20145076294203
CO3D 3                  
1 64900U 25156B   26190.69903058  .00003144  00000+0  14825-3 0  9990
2 64900  97.4335 269.0683 0001854 100.3214 259.8230 15.20209370 52954
CO3D 4                  
1 64901U 25156C   26190.69918213  .00000887  00000+0  44088-4 0  9996
2 64901  97.4337 269.0684 0001186 162.6050 197.5226 15.20203063 52951
CO3D 2                  
1 64902U 25156D   26190.73165433  .00002635  00000+0  12482-3 0  9995
2 64902  97.4334 268.9994 0001329  87.2074 272.9313 15.20193716 52956
CO3D 1                  
1 64903U 25156E   26190.73180907  .00002696  00000+0  12764-3 0  9999
2 64903  97.4334 268.9995 0001280  98.7407 261.3973 15.20197112 52959
CAS500-3                
1 66655U 25274F   26189.79608866  .00000933  00000+0  10657-3 0  9990
2 66655  97.7440 117.3557 0006665  55.1765 305.0078 14.88374289 33364
CAS500-2                
1 69013U 26100AK  26190.78746279  .00004548  00000+0  20890-3 0  9998
2 69013  97.3877  88.2163 0008131 314.7056  45.3516 15.20862515 10245
